IRIDIUM 155             
1 43573U 18061E   22155.46045632  .00000130  00000+0  39208-4 0  9992
2 43573  86.3943 312.5675 0002441  98.2626 261.8847 14.34213592202127
IRIDIUM 154             
1 43574U 18061F   22155.44139354  .00000136  00000+0  41479-4 0  9995
2 43574  86.3945 312.6383 0001926  91.3771 268.7646 14.34222973202170
IRIDIUM 163             
1 43575U 18061G   22155.49216792  .00000139  00000+0  42456-4 0  9992
2 43575  86.3942 312.5775 0002292  82.0367 278.1089 14.34214955202152
IRIDIUM 156             
1 43576U 18061H   22155.46678161  .00000188  00000+0  60050-4 0  9996
2 43576  86.3944 312.5936 0002473  89.6942 270.4537 14.34214121202144
IRIDIUM 164             
1 43577U 18061J   22155.44776878  .00000138  00000+0  42063-4 0  9998
2 43577  86.3944 312.6194 0001974  87.8045 272.3377 14.34215778202187
IRIDIUM 159             
1 43578U 18061K   22155.48580772  .00000151  00000+0  46720-4 0  9998
2 43578  86.3941 312.5711 0001972  90.4210 269.7211 14.34214399202153
IRIDIUM 180             
1 43922U 19002A   22155.55508956  .00000159  00000+0  49673-4 0  9997
2 43922  86.3987 249.3833 0001772  83.8372 276.3026 14.34215795177779
IRIDIUM 176             
1 43923U 19002B   22155.34718841  .00000439  00000+0  65795-4 0  9995
2 43923  86.6124 249.5050 0002373  95.3399 264.8089 14.72240787182402
IRIDIUM 168             
1 43924U 19002C   22155.54875548  .00000166  00000+0  52237-4 0  9990
2 43924  86.3990 249.4217 0002012  94.6147 265.5278 14.34214624177757
IRIDIUM 173             
1 43925U 19002D   22155.53605217  .00000032  00000+0  42399-5 0  9995
2 43925  86.3985 249.3758 0002072  92.3893 267.7540 14.34215023177749
IRIDIUM 169             
1 43926U 19002E   22155.43492326  .00000058  00000+0  12396-4 0  9991
2 43926  86.4216 281.0261 0005944 136.6398 223.5269 14.38596477178347
IRIDIUM 172             
1 43927U 19002F   22155.52971000  .00000118  00000+0  35160-4 0  9994
2 43927  86.3987 249.3821 0001995  92.0310 268.1114 14.34215067177748
IRIDIUM 175             
1 43928U 19002G   22155.54492994  .00000452  00000+0  67849-4 0  9997
2 43928  86.6126 249.2524 0002232  97.0191 263.1280 14.72244898182429
IRIDIUM 171             
1 43929U 19002H   22155.51069436  .00000153  00000+0  47744-4 0  9996
2 43929  86.3998 249.5327 0002012  95.4648 264.6777 14.34214002177730
IRIDIUM 170             
1 43930U 19002J   22155.35338433  .00000438  00000+0  65496-4 0  9996
2 43930  86.6122 249.5079 0002347 101.5133 258.6348 14.72243354182419
IRIDIUM 167             
1 43931U 19002K   22155.50434539  .00000162  00000+0  50941-4 0  9991
2 43931  86.3989 249.4021 0001834  89.5201 270.6204 14.34216092177736
